0 IRIDIUM 112
1 41925U 17003J   24013.77104289  .00000563  00000-0  19393-3 0  9992
2 41925  86.3960  98.3672 0002269  98.2393 261.9060 14.34217680366390
0 IRIDIUM 111
1 41926U 17003K   24013.75835869  .00000459  00000-0  15668-3 0  9991
2 41926  86.3958  98.4232 0002200  89.6345 270.5103 14.34217428366414
0 IRIDIUM 113
1 42803U 17039A   24014.43600753  .00000075  00000-0  19867-4 0  9993
2 42803  86.3994 331.8891 0002426  84.0676 276.0796 14.34218335344378
0 IRIDIUM 123
1 42804U 17039B   24014.47748742 -.00000062  00000-0 -29093-4 0  9999
2 42804  86.3971   3.3599 0002270  88.9956 271.1500 14.34218442343143
0 IRIDIUM 120
1 42805U 17039C   24013.94128566  .00000026  00000-0  20709-5 0  9991
2 42805  86.3982 331.9928 0002194  83.6808 276.4637 14.34217701344298
0 IRIDIUM 115
1 42806U 17039D   24014.11052273  .00000803  00000-0  23259-3 0  9997
2 42806  86.4520 331.9241 0002417  83.8047 276.3429 14.43293311346607
0 IRIDIUM 118
1 42807U 17039E   24014.02082079 -.00000890  00000-0 -32478-3 0  9996
2 42807  86.3976   3.5529 0002276  88.7538 271.3919 14.34215971343089
0 IRIDIUM 117
1 42808U 17039F   24014.45844856 -.00000120  00000-0 -50072-4 0  9990
2 42808  86.3972   3.3355 0002207  82.7231 277.4215 14.34214106343163
